#dP2021  1 14  0  0  0.00000000     289 ORBIT ITRF  BHN ESOC                    
## 2140 345600.00000000   300.00000000 59228 0.0000000000000                    
+  110   G13G28G21G22G07G05G20G31G17G15G16G29G12G19G02G25G01                    
+        G30G24G27G06G09G03G32G26G08G10G04G18G23G14R09R11R20                    
+        R19R13R01R22R16R08R03R07R02R17R14R18R21R05R15R12R04                    
+        R24E11E12E19E18E14E26E24E30E08E09E01E02E07E03E04E05                    
+        E21E25E27E31E36E13E15E33C11C12C14C19C20C27C28C22C21                    
+        C29C30C23C24C26C25C32C33C35C34C36C37C06C07C08C09C10                    
+        C13C16C38C39C40J01J02J03  0  0  0  0  0  0  0  0  0                    
++         5  5  5  5  5  5  6  5  5  5  5  5  5  5  5  5  6                    
++         5  5  5  5  5  5  5  5  5  5  5  5  5  5  5  6  6                    
++         5  6  6  6  6  6  6  6  5  5  5  5  5  5  5  5  6                    
++         5  5  6  5  5  5  5  5  5  5  5  5  5  5  5  5  5                    
++         5  5  5  5  5  5  5  5  6  5  6  6  6  6  6  5  5                    
++         5  6  6  5  5  6  6  6  5  6  6  5  6  7  7  7  6                    
++         7  6  5  8  5  7  6  6  0  0  0  0  0  0  0  0  0                    
%c M  cc GPS ccc cccc cccc cccc cccc ccccc ccccc ccccc ccccc                    
%c cc cc ccc ccc cccc cccc cccc cccc ccccc ccccc ccccc ccccc                    
%f  0.0000000  0.000000000  0.00000000000  0.000000000000000                    
%f  0.0000000  0.000000000  0.00000000000  0.000000000000000                    
%i    0    0    0    0      0      0      0      0         0                    
%i    0    0    0    0      0      0      0      0         0                    
/* CCCCCCCCCCCCCCCCCCCCCCCCCCCCCCCCCCCCCCCCCCCCCCCCCCCCCCCCCCCCCCCCCCCCCCCCCCCCC
/* CCCCCCCCCCCCCCCCCCCCCCCCCCCCCCCCCCCCCCCCCCCCCCCCCCCCCCCCCCCCCCCCCCCCCCCCCCCCC
/* CCCCCCCCCCCCCCCCCCCCCCCCCCCCCCCCCCCCCCCCCCCCCCCCCCCCCCCCCCCCCCCCCCCCCCCCCCCCC
/* PCV:IGS        OL/AL:EOT11A   NONE     YN ORB:CoN CLK:CoN                    
*  2021  1 14  1  0  0.00000000                                                 
PG13 -21120.817365 -10467.042592  12220.104170     85.634997                    
PG28  -4788.198767 -14413.395801  22353.644388    630.058287                    
PG21  15496.303254  -7937.901349  20687.307524     86.583187                    
PG22  24460.854340  -9925.623248   2154.062309   -698.652065                    
PG07   6102.325358 -25469.441915  -1978.404490     20.637443                    
PG05 -24162.669015   1181.284144 -11326.005541    -30.919958                    
PG20  -7722.091906  18507.106305  17221.894351    525.178203                    
PG31   8590.368321  18320.685606 -17031.684534    -93.729362                    
PG17 -12357.385103 -21239.896767  10523.558364    379.901123                    
PG15 -19321.889074   3158.101275  17748.033100   -176.502118                    
PG16  23952.839252   2008.862961 -12029.748176   -264.717701                    
PG29  -4312.335148  15412.765465 -21226.374707   -275.291980                    
PG12 -24253.659518   9886.395235  -4109.490548     13.306957                    
PG19 -17344.476166 -20015.485662   2257.079235    -52.252374                    
PG02 -13855.366044  -7290.002906 -20796.576644   -565.693862                    
PG25 -14382.909971  16488.090525 -15109.341262     59.254245                    
PG01  13506.587044 -16375.173398  15507.763871    780.607624                    
PG30  -1333.260395 -25008.490079   8554.405286   -368.507358                    
PG24 -14704.255335  12148.150036  18085.427096      3.710759                    
PG27  22612.536990  11286.321793   8590.777791    -55.485821                    
PG06  -6760.596964 -20578.866893 -15275.129723     -4.591352                    
PG09   2641.179925 -16657.016002 -20576.429595   -312.456705                    
PG03  21839.792238 -13248.633494  -7164.653654    -55.631929                    
PG32  14304.120063  20417.160913   9490.096776     14.148241                    
PG26  16405.109129   8335.435994 -19288.416203     29.540261                    
PG08  19561.181067   -229.152554  18109.034705     -6.491816                    
PG10   4488.704980  14428.183127  21939.973877    -38.599222                    
PG04  14169.211973  -7295.502587 -21250.992527   -172.511336                    
PG18  -5000.879167  26053.050846    193.652981    341.047512                    
PG23  -7577.202797  17082.062451  18834.693905    115.938270                    
PG14  -1577.731354 -15378.899169  21590.350934     84.985553                    
PR09 -18061.695972  17456.517334   4644.627432     18.431036                    
PR11   4319.484610  11251.659637 -22473.207339      4.561680                    
PR20  -7599.013437   9427.384721 -22442.766335   -431.094309                    
PR19 -12345.309030 -11524.537205 -19110.401808   -127.804781                    
PR13  18032.368004 -17308.454144  -5127.059385    -49.276106                    
PR01  24793.455332   5552.477476   2200.331052     73.440563                    
PR22  10375.038661  22346.425259   6788.740546    -92.370441                    
PR16 -16337.888688   5339.975656  18766.165767    -10.194686                    
PR08  16954.491676  11007.400225  15621.575332    -56.852311                    
PR03    688.031590 -11001.763553 -22964.007519     29.083278                    
PR07     94.749573  11161.015964  22970.698636    -42.177549                    
PR02  18125.529570  -4606.842883 -17343.246963    462.736930                    
PR17  -2231.642623 -22844.454943  11183.860992    391.019117                    
PR14   9396.500137 -20042.876512  12677.622637     59.809725                    
PR18 -10093.823614 -22702.089475  -5636.926064     63.062095                    
PR21   2818.296770  23214.236618 -10152.066925   -180.225129                    
PR05 -25019.585845  -4868.690472    549.112429     64.687418                    
PR15  -4531.496640 -11121.759192  22521.762577    105.893073                    
PR12  16065.020291  -4436.792837 -19297.909512    196.441692                    
PR04 -16967.342825 -10897.227151 -15593.578426     69.887457                    
PR24   7622.308313 -10332.629740  22066.840430     27.673990                    
PE11 -13440.899337 -18354.621398 -18928.413439   6474.097102                    
PE12  -2655.166992 -29429.685019  -1588.621370   5408.018796                    
PE19  14186.697317 -11153.816323 -23465.527947    177.780351                    
PE18 -24150.872635   1287.455184 -21597.706036  -1414.098755                    
PE14  19909.573244   5097.215691  12106.336706  -1293.868283                    
PE26  16076.255627  -3753.185725  24580.647386   2268.244877                    
PE24 -16719.194599  -7858.697865  23109.379775   -688.241650                    
PE30  -2805.791639  19446.797181 -22139.122832   3264.970708                    
PE08   9123.657804  20117.648685  19694.070552   6062.417579                    
PE09 -24815.533141 -15682.507090  -3851.594491   5799.939673                    
PE01  20440.532614 -19695.436581   8419.675124  -1024.244471                    
PE02 -20344.601192  19719.746382  -8526.021106    190.857321                    
PE07  24641.998364  15904.823673   3971.245710   -487.347763                    
PE03 -12066.691972  12759.507940  23821.941372   -387.049589                    
PE04  -8655.141343 -20248.006071 -19780.838555   -688.324547                    
PE05 -26003.078954  -2319.449347  13946.462087   -313.114223                    
PE21  26410.541055  -9046.972838  -9857.851553   -642.714202                    
PE25 -26386.524945   8898.960521  10024.636338   -524.273166                    
PE27  17259.489220   7234.563931 -22934.357882     51.660652                    
PE31   1995.035801 -19184.387334  22464.011981   -477.337157                    
PE36 -15962.435790   3022.364187 -24730.898236    454.588287                    
PE13  13311.568478  18677.900705  18724.936543    410.209865                    
PE15   2815.995516  29420.105255   1678.320897    834.398181                    
PE33   9345.586659 -22831.219584  16366.815960   -464.843917                    
PC11  12973.540182  -8243.622010  23360.737628   -884.505855                    
PC12  18954.838504  10927.829786  17351.436547    728.140249                    
PC14  24084.953840  -7860.055546 -11621.978836   -102.247685                    
PC19 -16470.027619  12738.728677  18606.490569    689.938535                    
PC20 -27478.483945   2648.119748   4180.282205   -909.493777                    
PC27 -17835.229463 -19197.114109  -9584.714801    465.929481                    
PC28  -7462.833025 -25654.981563   8072.190544   -122.104333                    
PC22   4361.368511  15729.961270  22630.655867   -844.018944                    
PC21  22512.090617   9554.917172  13440.462981   -792.060120                    
PC29  -6592.039765  17305.425366 -20878.996004    338.170971                    
PC30 -17924.017053  -1342.157269 -21339.164004    430.824131                    
PC23   2609.623063 -23871.741659  14224.262188   -881.855984                    
PC24  19836.501546  -7901.152959 -17995.708724   -741.612047                    
PC26  12836.386974  10058.122493 -22651.539516    963.260881                    
PC25  15139.307407 -23361.311488  -2143.706333   -896.518738                    
PC32 -22589.727719  -9385.145182 -13422.523934   -883.451181                    
PC33  16474.892947 -12803.778177 -18523.492249   -913.783427                    
PC35   8135.873104  25391.270806  -8295.940445   -466.934805                    
PC34  17742.827392    713.491941  21530.162748   -763.797405                    
PC36 -15841.967047  22837.300142   2469.900106   -777.827887                    
PC37 -12024.992533 -11192.012999  22573.763187   -860.682804                    
PC06  -6444.286363  28417.666687  31053.414146      3.226691                    
PC07 -20895.792970  26023.485364 -25767.308188   -224.795038                    
PC08 -16867.675123  38220.444967  -3673.347445   -893.436395                    
PC09   7501.980343  36320.375936  20703.853748    805.139275                    
PC10  -7425.284712  27359.243232 -31093.682201   -104.608326                    
PC13  -7113.795398  40067.167635  10580.564927     96.648664                    
PC16  -4713.792080  28687.800280  30692.366632   -659.216838                    
PC38 -15794.486831  38950.398882  -2242.949055    123.692180                    
PC39  -1166.890016  29772.097462  29882.548024     27.337598                    
PC40 -15316.510688  22181.202997 -32447.533521    120.932984                    
PJ01 -29917.894936  22101.077935  24906.574416   -336.471303                    
PJ02 -35644.334692  22551.263690   3256.788791      0.719180                    
PJ03 -19083.678112  23730.785622 -24488.140385     -0.102787                    
EOF                                                                             
